[
  {
    "name": "STARLINK-35986",
    "noradId": "66853",
    "line1": "1 66853U 25281F   26176.48514022  .00029628  00000+0  10804-2 0  9995",
    "line2": "2 66853  43.0059  94.5133 0002198 276.3897  83.6705 15.27624238 32675"
  },
  {
    "name": "STARLINK-36087",
    "noradId": "66854",
    "line1": "1 66854U 25281G   26176.48129018  .00028402  00000+0  10367-2 0  9996",
    "line2": "2 66854  43.0023  94.4849 0001332 266.0523  94.0176 15.27610281 32672"
  },
  {
    "name": "STARLINK-36090",
    "noradId": "66855",
    "line1": "1 66855U 25281H   26176.47100838  .00022936  00000+0  83963-3 0  9994",
    "line2": "2 66855  43.0011  94.4008 0001710 270.3499  89.7157 15.27610759 32677"
  },
  {
    "name": "STARLINK-36072",
    "noradId": "66856",
    "line1": "1 66856U 25281J   26175.48263713  .00012216  00000+0  45223-3 0  9994",
    "line2": "2 66856  43.0011 100.7508 0002124 277.0384  83.0226 15.27613764 32517"
  },
  {
    "name": "STARLINK-36083",
    "noradId": "66857",
    "line1": "1 66857U 25281K   26175.08263979  .00018434  00000+0  67704-3 0  9991",
    "line2": "2 66857  42.9987 102.9080 0001445 262.3436  97.7252 15.27613084 32456"
  },
  {
    "name": "STARLINK-35118",
    "noradId": "66858",
    "line1": "1 66858U 25281L   26175.85312770  .00021253  00000+0  77895-3 0  9996",
    "line2": "2 66858  43.0020  98.3680 0001854 267.7227  92.3412 15.27608242 32574"
  },
  {
    "name": "STARLINK-35646",
    "noradId": "66859",
    "line1": "1 66859U 25281M   26176.50313517  .00020633  00000+0  75672-3 0  9992",
    "line2": "2 66859  43.0052  94.6484 0002086 275.0640  84.9973 15.27600891 32672"
  },
  {
    "name": "STARLINK-35987",
    "noradId": "66860",
    "line1": "1 66860U 25281N   26176.48643063  .00028224  00000+0  10303-2 0  9996",
    "line2": "2 66860  43.0013  94.5197 0001296 264.2448  95.8256 15.27608930 32676"
  },
  {
    "name": "STARLINK-35991",
    "noradId": "66861",
    "line1": "1 66861U 25281P   26176.47741625  .00019996  00000+0  73335-3 0  9990",
    "line2": "2 66861  43.0024  94.4546 0005294 262.6879  97.3371 15.27607579 32671"
  },
  {
    "name": "STARLINK-35974",
    "noradId": "66862",
    "line1": "1 66862U 25281Q   26176.49927938  .00020693  00000+0  75899-3 0  9999",
    "line2": "2 66862  43.0038  94.6174 0001708 272.3997  87.6659 15.27596618 32673"
  },
  {
    "name": "STARLINK-36134",
    "noradId": "66863",
    "line1": "1 66863U 25281R   26176.46714483  .00020838  00000+0  76366-3 0  9997",
    "line2": "2 66863  42.9992  94.3685 0001391 268.0666  92.0027 15.27621940 32674"
  },
  {
    "name": "STARLINK-36070",
    "noradId": "66864",
    "line1": "1 66864U 25281S   26175.86469171  .00025460  00000+0  93173-3 0  9993",
    "line2": "2 66864  42.9975  98.4588 0001973 274.2496  85.8130 15.27571503 32572"
  },
  {
    "name": "STARLINK-36117",
    "noradId": "66865",
    "line1": "1 66865U 25281T   26176.47486616  .00021174  00000+0  77616-3 0  9997",
    "line2": "2 66865  42.9988  94.4334 0001246 266.4095  93.6614 15.27606045 32678"
  },
  {
    "name": "STARLINK-36126",
    "noradId": "66866",
    "line1": "1 66866U 25281U   26176.46473610  .00026708  00000+0  97534-3 0  9996",
    "line2": "2 66866  42.9997  95.2190 0000481 287.9613  72.1186 15.27621326 32655"
  },
  {
    "name": "STARLINK-36101",
    "noradId": "66867",
    "line1": "1 66867U 25281V   26175.48009997  .00016761  00000+0  61670-3 0  9991",
    "line2": "2 66867  42.9984 100.7282 0001395 276.1316  83.9377 15.27607449 32507"
  },
  {
    "name": "STARLINK-36108",
    "noradId": "66868",
    "line1": "1 66868U 25281W   26175.93393710  .00025537  00000+0  93374-3 0  9998",
    "line2": "2 66868  42.9962  98.1140 0000593 224.2264 135.8540 15.27599528 32576"
  },
  {
    "name": "STARLINK-36092",
    "noradId": "66869",
    "line1": "1 66869U 25281X   26175.86212741  .00015515  00000+0  57184-3 0  9999",
    "line2": "2 66869  42.9985  98.4337 0001302 238.1716 121.9009 15.27597537 32561"
  },
  {
    "name": "STARLINK-36114",
    "noradId": "66870",
    "line1": "1 66870U 25281Y   26175.85827131  .00018074  00000+0  66448-3 0  9991",
    "line2": "2 66870  43.0013  98.4051 0001523 275.0867  84.9811 15.27592022 32565"
  },
  {
    "name": "STARLINK-36095",
    "noradId": "66871",
    "line1": "1 66871U 25281Z   26175.85441716  .00030445  00000+0  11104-2 0  9997",
    "line2": "2 66871  43.0021  98.3761 0001448 260.1425  99.9263 15.27606827 32558"
  },
  {
    "name": "STARLINK-36082",
    "noradId": "66872",
    "line1": "1 66872U 25281AA  26175.98133029  .00032273  00000+0  11758-2 0  9993",
    "line2": "2 66872  43.0021  97.6077 0003269 298.5952  61.4571 15.27614710 32583"
  },
  {
    "name": "STARLINK-36128",
    "noradId": "66873",
    "line1": "1 66873U 25281AB  26176.49413062  .00027651  00000+0  10097-2 0  9998",
    "line2": "2 66873  43.0038  94.5729 0003586 264.7727  95.2716 15.27605865 32610"
  },
  {
    "name": "STARLINK-36129",
    "noradId": "66874",
    "line1": "1 66874U 25281AC  26176.50057264  .00028039  00000+0  10242-2 0  9992",
    "line2": "2 66874  43.0027  94.6230 0001617 280.3469  79.7200 15.27589913 32662"
  },
  {
    "name": "STARLINK-36053",
    "noradId": "66875",
    "line1": "1 66875U 25281AD  26176.49028629  .00029685  00000+0  10827-2 0  9991",
    "line2": "2 66875  43.0019  94.5435 0001434 273.9771  86.0916 15.27618323 32619"
  },
  {
    "name": "STARLINK-35702",
    "noradId": "66876",
    "line1": "1 66876U 25281AE  26176.49670037  .00028670  00000+0  10459-2 0  9992",
    "line2": "2 66876  43.0040  94.5940 0001470 272.7563  87.3121 15.27625541 32668"
  },
  {
    "name": "STARLINK-35866",
    "noradId": "66878",
    "line1": "1 66878U 25283A   26176.51154089  .00019864  00000+0  68074-3 0  9995",
    "line2": "2 66878  53.1589 243.2433 0001110  74.6673 285.4450 15.30212708 32355"
  },
  {
    "name": "STARLINK-35749",
    "noradId": "66879",
    "line1": "1 66879U 25283B   26176.49993064  .00020228  00000+0  69279-3 0  9991",
    "line2": "2 66879  53.1577 243.1696 0001127 124.9292 235.1814 15.30219430 32352"
  },
  {
    "name": "STARLINK-35844",
    "noradId": "66880",
    "line1": "1 66880U 25283C   26176.43989388  .00019161  00000+0  65704-3 0  9994",
    "line2": "2 66880  53.1590 243.5063 0001175  57.0950 303.0164 15.30216637 32349"
  },
  {
    "name": "STARLINK-35860",
    "noradId": "66881",
    "line1": "1 66881U 25283D   26176.55891335  .00010155  00000+0  35446-3 0  9996",
    "line2": "2 66881  53.1583 242.8263 0001420  88.0534 272.0629 15.30206666 32365"
  },
  {
    "name": "STARLINK-35912",
    "noradId": "66882",
    "line1": "1 66882U 25283E   26176.46532398  .00027672  00000+0  82674-3 0  9995",
    "line2": "2 66882  53.1582 242.2520 0001202  88.7733 271.3407 15.34414621 32363"
  },
  {
    "name": "STARLINK-35947",
    "noradId": "66883",
    "line1": "1 66883U 25283F   26176.47374133  .00032471  00000+0  96759-3 0  9990",
    "line2": "2 66883  53.1576 242.3029 0001159  82.9390 277.1744 15.34413543 32380"
  }
]