OBJECT_NAME,OBJECT_ID,EPOCH,MEAN_MOTION,ECCENTRICITY,INCLINATION,RA_OF_ASC_NODE,ARG_OF_PERICENTER,MEAN_ANOMALY,EPHEMERIS_TYPE,CLASSIFICATION_TYPE,NORAD_CAT_ID,ELEMENT_SET_NO,REV_AT_EPOCH,BSTAR,MEAN_MOTION_DOT,MEAN_MOTION_DDOT
STARLINK-35986,2025-281F,2026-06-25T11:38:36.115008,15.27624238,.00021982,43.0059,94.5133,276.3897,83.6705,0,U,66853,999,3267,.10803779E-2,.29628E-3,0
STARLINK-36087,2025-281G,2026-06-25T11:33:03.471552,15.27610281,.00013328,43.0023,94.4849,266.0523,94.0176,0,U,66854,999,3267,.1036718E-2,.28402E-3,0
STARLINK-36090,2025-281H,2026-06-25T11:18:15.124032,15.27610759,.00017103,43.0011,94.4008,270.3499,89.7157,0,U,66855,999,3267,.83962923E-3,.22936E-3,0
STARLINK-36072,2025-281J,2026-06-24T11:34:59.848032,15.27613764,.00021248,43.0011,100.7508,277.0384,83.0226,0,U,66856,999,3251,.45223176E-3,.12216E-3,0
STARLINK-36083,2025-281K,2026-06-24T01:59:00.077856,15.27613084,.0001445,42.9987,102.9080,262.3436,97.7252,0,U,66857,999,3245,.67704495E-3,.18434E-3,0
STARLINK-35118,2025-281L,2026-06-24T20:28:30.233280,15.27608242,.00018549,43.0020,98.3680,267.7227,92.3412,0,U,66858,999,3257,.7789516E-3,.21253E-3,0
STARLINK-35646,2025-281M,2026-06-25T12:04:30.878688,15.27600891,.00020861,43.0052,94.6484,275.0640,84.9973,0,U,66859,999,3267,.75672329E-3,.20633E-3,0
STARLINK-35987,2025-281N,2026-06-25T11:40:27.606432,15.27608930,.00012964,43.0013,94.5197,264.2448,95.8256,0,U,66860,999,3267,.10303345E-2,.28224E-3,0
STARLINK-35991,2025-281P,2026-06-25T11:27:28.764000,15.27607579,.00052947,43.0024,94.4546,262.6879,97.3371,0,U,66861,999,3267,.73335079E-3,.19996E-3,0
STARLINK-35974,2025-281Q,2026-06-25T11:58:57.738432,15.27596618,.0001708,43.0038,94.6174,272.3997,87.6659,0,U,66862,999,3267,.7589918E-3,.20693E-3,0
STARLINK-36134,2025-281R,2026-06-25T11:12:41.313312,15.27621940,.00013915,42.9992,94.3685,268.0666,92.0027,0,U,66863,999,3267,.76365968E-3,.20838E-3,0
STARLINK-36070,2025-281S,2026-06-24T20:45:09.363744,15.27571503,.00019734,42.9975,98.4588,274.2496,85.8130,0,U,66864,999,3257,.93172952E-3,.2546E-3,0
STARLINK-36117,2025-281T,2026-06-25T11:23:48.436224,15.27606045,.00012467,42.9988,94.4334,266.4095,93.6614,0,U,66865,999,3267,.77615619E-3,.21174E-3,0
STARLINK-36126,2025-281U,2026-06-25T11:09:13.199040,15.27621326,.00004819,42.9997,95.2190,287.9613,72.1186,0,U,66866,999,3265,.97533913E-3,.26708E-3,0
STARLINK-36101,2025-281V,2026-06-24T11:31:20.637408,15.27607449,.0001395,42.9984,100.7282,276.1316,83.9377,0,U,66867,999,3250,.61669544E-3,.16761E-3,0
STARLINK-36108,2025-281W,2026-06-24T22:24:52.165440,15.27599528,.00005939,42.9962,98.1140,224.2264,135.8540,0,U,66868,999,3257,.93373509E-3,.25537E-3,0
STARLINK-36092,2025-281X,2026-06-24T20:41:27.808224,15.27597537,.00013024,42.9985,98.4337,238.1716,121.9009,0,U,66869,999,3256,.57184189E-3,.15515E-3,0
STARLINK-36114,2025-281Y,2026-06-24T20:35:54.641184,15.27592022,.00015231,43.0013,98.4051,275.0867,84.9811,0,U,66870,999,3256,.66447864E-3,.18074E-3,0
STARLINK-36095,2025-281Z,2026-06-24T20:30:21.642624,15.27606827,.00014483,43.0021,98.3761,260.1425,99.9263,0,U,66871,999,3255,.11104129E-2,.30445E-3,0
STARLINK-36082,2025-281AA,2026-06-24T23:33:06.937056,15.27614710,.00032696,43.0021,97.6077,298.5952,61.4571,0,U,66872,999,3258,.11758167E-2,.32273E-3,0
STARLINK-36128,2025-281AB,2026-06-25T11:51:32.885568,15.27605865,.00035867,43.0038,94.5729,264.7727,95.2716,0,U,66873,999,3261,.10096803E-2,.27651E-3,0
STARLINK-36129,2025-281AC,2026-06-25T12:00:49.476096,15.27589913,.00016179,43.0027,94.6230,280.3469,79.7200,0,U,66874,999,3266,.1024247E-2,.28039E-3,0
STARLINK-36053,2025-281AD,2026-06-25T11:46:00.735456,15.27618323,.00014342,43.0019,94.5435,273.9771,86.0916,0,U,66875,999,3261,.10826685E-2,.29685E-3,0
STARLINK-35702,2025-281AE,2026-06-25T11:55:14.911968,15.27625541,.00014702,43.0040,94.5940,272.7563,87.3121,0,U,66876,999,3266,.10458739E-2,.2867E-3,0
STARLINK-35866,2025-283A,2026-06-25T12:16:37.132896,15.30212708,.00011106,53.1589,243.2433,74.6673,285.4450,0,U,66878,999,3235,.68074329E-3,.19864E-3,0
STARLINK-35749,2025-283B,2026-06-25T11:59:54.007296,15.30219430,.0001127,53.1577,243.1696,124.9292,235.1814,0,U,66879,999,3235,.69279377E-3,.20228E-3,0
STARLINK-35844,2025-283C,2026-06-25T10:33:26.831232,15.30216637,.00011757,53.1590,243.5063,57.0950,303.0164,0,U,66880,999,3234,.65704179E-3,.19161E-3,0
STARLINK-35860,2025-283D,2026-06-25T13:24:50.113440,15.30206666,.00014209,53.1583,242.8263,88.0534,272.0629,0,U,66881,999,3236,.35445689E-3,.10155E-3,0
STARLINK-35912,2025-283E,2026-06-25T11:10:03.991872,15.34414621,.00012027,53.1582,242.2520,88.7733,271.3407,0,U,66882,999,3236,.82673565E-3,.27672E-3,0
STARLINK-35947,2025-283F,2026-06-25T11:22:11.250912,15.34413543,.00011598,53.1576,242.3029,82.9390,277.1744,0,U,66883,999,3238,.96758932E-3,.32471E-3,0
